[{"OBJECT_NAME":"IRIDIUM 165","OBJECT_ID":"2018-061D","EPOCH":"2026-03-09T12:28:22.404000","MEAN_MOTION":14.34217296,"ECCENTRICITY":0.00020877,"INCLINATION":86.3917,"RA_OF_ASC_NODE":98.4934,"ARG_OF_PERICENTER":96.9181,"MEAN_ANOMALY":263.2252,"EPHEMERIS_TYPE":0,"CLASSIFICATION_TYPE":"U","NORAD_CAT_ID":43572,"ELEMENT_SET_NO":999,"REV_AT_EPOCH":39910,"BSTAR":7.29473e-7,"MEAN_MOTION_DOT":2.2e-7,"MEAN_MOTION_DDOT":0},{"OBJECT_NAME":"THOR BURNER 2 R\/B","OBJECT_ID":"1967-010B","EPOCH":"2026-03-09T20:44:05.454528","MEAN_MOTION":14.29207815,"ECCENTRICITY":0.00518594,"INCLINATION":98.9637,"RA_OF_ASC_NODE":19.8408,"ARG_OF_PERICENTER":212.6521,"MEAN_ANOMALY":147.145,"EPHEMERIS_TYPE":0,"CLASSIFICATION_TYPE":"U","NORAD_CAT_ID":2741,"ELEMENT_SET_NO":999,"REV_AT_EPOCH":7108,"BSTAR":0.00011835567,"MEAN_MOTION_DOT":2.58e-6,"MEAN_MOTION_DDOT":0}]
